LARES-2                 
1 53105U 22080A   26080.04970185 -.00000015  00000+0  00000+0 0  9991
2 53105  70.1732 335.5553 0005411   4.6462 355.4347  6.38964821 86033
